STARLINK-5822           
1 57064U 23088S   26068.79320946  .00000671  00000+0  64725-4 0  9996
2 57064  43.0030 107.0455 0001237 269.5998  90.4703 15.02535993149400
STARLINK-5830           
1 57065U 23088T   26068.14840897  .00000012  00000+0  15973-4 0  9998
2 57065  43.0036 110.7944 0001374 273.4265  86.6421 15.02531614149303
STARLINK-5827           
1 57066U 23088U   26068.09513795 -.00000208  00000+0 -30595-6 0  9995
2 57066  43.0033 110.4145 0001491 275.9436  84.1236 15.02533243149305
STARLINK-5824           
1 57067U 23088V   26067.39384016 -.00003627  00000+0 -25351-3 0  9999
2 57067  43.0050 114.5970 0001806 267.5704  92.4932 15.02537743150172
STARLINK-5844           
1 57068U 23088W   26068.81972013 -.00010243  00000+0 -74334-3 0  9995
2 57068  43.0037 106.3865 0001387 257.8065 102.2622 15.02583341150391
STARLINK-5821           
1 57069U 23088X   26068.83334490  .00018782  00000+0  12246-2 0  9996
2 57069  43.0011  93.9129 0000639 289.8546 251.1957 15.07583178  5764
STARLINK-5828           
1 57070U 23088Y   26068.83334490  .00023340  00000+0  13990-2 0  9991
2 57070  43.0012  94.0076 0000981 300.0716 203.3334 15.10554347  5820
STARLINK-5834           
1 57071U 23088Z   26068.83334490  .00022982  00000+0  14524-2 0  9997
2 57071  43.0012  93.9863 0001007 319.7014 192.0289 15.08634516  5817
STARLINK-5843           
1 57072U 23088AA  26068.83334490  .00021657  00000+0  13001-2 0  9995
2 57072  43.0020  93.9498 0001041 303.1152 222.5398 15.10533402  5814
STARLINK-5838           
1 57073U 23088AB  26068.83334490  .00023090  00000+0  14241-2 0  9996
2 57073  43.0010  94.0498 0001258 300.7203 184.5865 15.09521919  5810
STARLINK-5773           
1 57074U 23088AC  26068.81640070  .00000163  00000+0  27131-4 0  9999
2 57074  43.0031 106.3596 0001153 272.5844  87.4866 15.02537087150393
STARLINK-5542           
1 57075U 23088AD  26068.83334490  .00047675  00000+0  29032-2 0  9997
2 57075  43.0008  93.8072 0000884 256.4427 328.6246 15.09683043  5768
STARLINK-6155           
1 57076U 23088AE  26068.83334490  .00021877  00000+0  14051-2 0  9999
2 57076  43.0011  94.0513 0001249 311.6498 172.6493 15.08061642  5567
STARLINK-6194           
1 57077U 23088AF  26068.83334490  .00016869  00000+0  10530-2 0  9993
2 57077  43.0015  93.8503 0000977 291.0464 276.7501 15.09239569  5763
STARLINK-6245           
1 57079U 23088AH  26068.83334490  .00022811  00000+0  13513-2 0  9993
2 57079  43.0006  93.6032 0002046 259.6380  52.4587 15.10991655  5818
STARLINK-6243           
1 57080U 23088AJ  26068.83334490  .00019713  00000+0  12948-2 0  9993
2 57080  43.0012  93.9903 0001073 318.0656 191.3744 15.07284953  5766
STARLINK-6184           
1 57081U 23088AK  26068.83334490  .00020065  00000+0  12301-2 0  9999
2 57081  43.0008  93.6345 0001858 251.4570  46.4625 15.09806541  5814
