[{"OBJECT_NAME":"STARLINK-5822","OBJECT_ID":"2023-088S","EPOCH":"2026-03-09T19:02:13.297344","MEAN_MOTION":15.02535993,"ECCENTRICITY":0.0001237,"INCLINATION":43.003,"RA_OF_ASC_NODE":107.0455,"ARG_OF_PERICENTER":269.5998,"MEAN_ANOMALY":90.4703,"EPHEMERIS_TYPE":0,"CLASSIFICATION_TYPE":"U","NORAD_CAT_ID":57064,"ELEMENT_SET_NO":999,"REV_AT_EPOCH":14940,"BSTAR":6.4725e-5,"MEAN_MOTION_DOT":6.71e-6,"MEAN_MOTION_DDOT":0},{"OBJECT_NAME":"STARLINK-5830","OBJECT_ID":"2023-088T","EPOCH":"2026-03-09T03:33:42.535008","MEAN_MOTION":15.02531614,"ECCENTRICITY":0.00013745,"INCLINATION":43.0036,"RA_OF_ASC_NODE":110.7944,"ARG_OF_PERICENTER":273.4265,"MEAN_ANOMALY":86.6421,"EPHEMERIS_TYPE":0,"CLASSIFICATION_TYPE":"U","NORAD_CAT_ID":57065,"ELEMENT_SET_NO":999,"REV_AT_EPOCH":14930,"BSTAR":1.5973487e-5,"MEAN_MOTION_DOT":1.2e-7,"MEAN_MOTION_DDOT":0},{"OBJECT_NAME":"STARLINK-5827","OBJECT_ID":"2023-088U","EPOCH":"2026-03-09T02:16:59.918880","MEAN_MOTION":15.02533243,"ECCENTRICITY":0.00014914,"INCLINATION":43.0033,"RA_OF_ASC_NODE":110.4145,"ARG_OF_PERICENTER":275.9436,"MEAN_ANOMALY":84.1236,"EPHEMERIS_TYPE":0,"CLASSIFICATION_TYPE":"U","NORAD_CAT_ID":57066,"ELEMENT_SET_NO":999,"REV_AT_EPOCH":14930,"BSTAR":-3.0595e-7,"MEAN_MOTION_DOT":-2.08e-6,"MEAN_MOTION_DDOT":0},{"OBJECT_NAME":"STARLINK-5824","OBJECT_ID":"2023-088V","EPOCH":"2026-03-08T09:27:07.789824","MEAN_MOTION":15.02537743,"ECCENTRICITY":0.00018063,"INCLINATION":43.005,"RA_OF_ASC_NODE":114.597,"ARG_OF_PERICENTER":267.5704,"MEAN_ANOMALY":92.4932,"EPHEMERIS_TYPE":0,"CLASSIFICATION_TYPE":"U","NORAD_CAT_ID":57067,"ELEMENT_SET_NO":999,"REV_AT_EPOCH":15017,"BSTAR":-0.00025350849,"MEAN_MOTION_DOT":-3.627e-5,"MEAN_MOTION_DDOT":0},{"OBJECT_NAME":"STARLINK-5844","OBJECT_ID":"2023-088W","EPOCH":"2026-03-09T19:40:23.819232","MEAN_MOTION":15.02583341,"ECCENTRICITY":0.0001387,"INCLINATION":43.0037,"RA_OF_ASC_NODE":106.3865,"ARG_OF_PERICENTER":257.8065,"MEAN_ANOMALY":102.2622,"EPHEMERIS_TYPE":0,"CLASSIFICATION_TYPE":"U","NORAD_CAT_ID":57068,"ELEMENT_SET_NO":999,"REV_AT_EPOCH":15039,"BSTAR":-0.00074334,"MEAN_MOTION_DOT":-0.00010243,"MEAN_MOTION_DDOT":0},{"OBJECT_NAME":"STARLINK-5821","OBJECT_ID":"2023-088X","EPOCH":"2026-03-09T20:00:00.999360","MEAN_MOTION":15.07583178,"ECCENTRICITY":6.39e-5,"INCLINATION":43.0011,"RA_OF_ASC_NODE":93.9129,"ARG_OF_PERICENTER":289.8546,"MEAN_ANOMALY":251.1957,"EPHEMERIS_TYPE":0,"CLASSIFICATION_TYPE":"U","NORAD_CAT_ID":57069,"ELEMENT_SET_NO":999,"REV_AT_EPOCH":576,"BSTAR":0.0012246,"MEAN_MOTION_DOT":0.00018782,"MEAN_MOTION_DDOT":0},{"OBJECT_NAME":"STARLINK-5828","OBJECT_ID":"2023-088Y","EPOCH":"2026-03-09T20:00:00.999360","MEAN_MOTION":15.10554347,"ECCENTRICITY":9.81e-5,"INCLINATION":43.0012,"RA_OF_ASC_NODE":94.0076,"ARG_OF_PERICENTER":300.0716,"MEAN_ANOMALY":203.3334,"EPHEMERIS_TYPE":0,"CLASSIFICATION_TYPE":"U","NORAD_CAT_ID":57070,"ELEMENT_SET_NO":999,"REV_AT_EPOCH":582,"BSTAR":0.001399,"MEAN_MOTION_DOT":0.0002334,"MEAN_MOTION_DDOT":0},{"OBJECT_NAME":"STARLINK-5834","OBJECT_ID":"2023-088Z","EPOCH":"2026-03-09T20:00:00.999360","MEAN_MOTION":15.08634516,"ECCENTRICITY":0.0001007,"INCLINATION":43.0012,"RA_OF_ASC_NODE":93.9863,"ARG_OF_PERICENTER":319.7014,"MEAN_ANOMALY":192.0289,"EPHEMERIS_TYPE":0,"CLASSIFICATION_TYPE":"U","NORAD_CAT_ID":57071,"ELEMENT_SET_NO":999,"REV_AT_EPOCH":581,"BSTAR":0.0014524,"MEAN_MOTION_DOT":0.00022982,"MEAN_MOTION_DDOT":0},{"OBJECT_NAME":"STARLINK-5843","OBJECT_ID":"2023-088AA","EPOCH":"2026-03-09T20:00:00.999360","MEAN_MOTION":15.10533402,"ECCENTRICITY":0.0001041,"INCLINATION":43.002,"RA_OF_ASC_NODE":93.9498,"ARG_OF_PERICENTER":303.1152,"MEAN_ANOMALY":222.5398,"EPHEMERIS_TYPE":0,"CLASSIFICATION_TYPE":"U","NORAD_CAT_ID":57072,"ELEMENT_SET_NO":999,"REV_AT_EPOCH":581,"BSTAR":0.0013001,"MEAN_MOTION_DOT":0.00021657,"MEAN_MOTION_DDOT":0},{"OBJECT_NAME":"STARLINK-5838","OBJECT_ID":"2023-088AB","EPOCH":"2026-03-09T20:00:00.999360","MEAN_MOTION":15.09521919,"ECCENTRICITY":0.0001258,"INCLINATION":43.001,"RA_OF_ASC_NODE":94.0498,"ARG_OF_PERICENTER":300.7203,"MEAN_ANOMALY":184.5865,"EPHEMERIS_TYPE":0,"CLASSIFICATION_TYPE":"U","NORAD_CAT_ID":57073,"ELEMENT_SET_NO":999,"REV_AT_EPOCH":581,"BSTAR":0.0014241,"MEAN_MOTION_DOT":0.0002309,"MEAN_MOTION_DDOT":0},{"OBJECT_NAME":"STARLINK-5773","OBJECT_ID":"2023-088AC","EPOCH":"2026-03-09T19:35:37.020480","MEAN_MOTION":15.02537087,"ECCENTRICITY":0.0001153,"INCLINATION":43.0031,"RA_OF_ASC_NODE":106.3596,"ARG_OF_PERICENTER":272.5844,"MEAN_ANOMALY":87.4866,"EPHEMERIS_TYPE":0,"CLASSIFICATION_TYPE":"U","NORAD_CAT_ID":57074,"ELEMENT_SET_NO":999,"REV_AT_EPOCH":15039,"BSTAR":2.7131e-5,"MEAN_MOTION_DOT":1.63e-6,"MEAN_MOTION_DDOT":0},{"OBJECT_NAME":"STARLINK-5542","OBJECT_ID":"2023-088AD","EPOCH":"2026-03-09T20:00:00.999360","MEAN_MOTION":15.09683043,"ECCENTRICITY":8.84e-5,"INCLINATION":43.0008,"RA_OF_ASC_NODE":93.8072,"ARG_OF_PERICENTER":256.4427,"MEAN_ANOMALY":328.6246,"EPHEMERIS_TYPE":0,"CLASSIFICATION_TYPE":"U","NORAD_CAT_ID":57075,"ELEMENT_SET_NO":999,"REV_AT_EPOCH":576,"BSTAR":0.0029032,"MEAN_MOTION_DOT":0.00047675,"MEAN_MOTION_DDOT":0},{"OBJECT_NAME":"STARLINK-6155","OBJECT_ID":"2023-088AE","EPOCH":"2026-03-09T20:00:00.999360","MEAN_MOTION":15.08061642,"ECCENTRICITY":0.0001249,"INCLINATION":43.0011,"RA_OF_ASC_NODE":94.0513,"ARG_OF_PERICENTER":311.6498,"MEAN_ANOMALY":172.6493,"EPHEMERIS_TYPE":0,"CLASSIFICATION_TYPE":"U","NORAD_CAT_ID":57076,"ELEMENT_SET_NO":999,"REV_AT_EPOCH":556,"BSTAR":0.0014051,"MEAN_MOTION_DOT":0.00021877,"MEAN_MOTION_DDOT":0},{"OBJECT_NAME":"STARLINK-6194","OBJECT_ID":"2023-088AF","EPOCH":"2026-03-09T20:00:00.999360","MEAN_MOTION":15.09239569,"ECCENTRICITY":9.77e-5,"INCLINATION":43.0015,"RA_OF_ASC_NODE":93.8503,"ARG_OF_PERICENTER":291.0464,"MEAN_ANOMALY":276.7501,"EPHEMERIS_TYPE":0,"CLASSIFICATION_TYPE":"U","NORAD_CAT_ID":57077,"ELEMENT_SET_NO":999,"REV_AT_EPOCH":576,"BSTAR":0.001053,"MEAN_MOTION_DOT":0.00016869,"MEAN_MOTION_DDOT":0},{"OBJECT_NAME":"STARLINK-6245","OBJECT_ID":"2023-088AH","EPOCH":"2026-03-09T20:00:00.999360","MEAN_MOTION":15.10991655,"ECCENTRICITY":0.0002046,"INCLINATION":43.0006,"RA_OF_ASC_NODE":93.6032,"ARG_OF_PERICENTER":259.638,"MEAN_ANOMALY":52.4587,"EPHEMERIS_TYPE":0,"CLASSIFICATION_TYPE":"U","NORAD_CAT_ID":57079,"ELEMENT_SET_NO":999,"REV_AT_EPOCH":581,"BSTAR":0.0013513,"MEAN_MOTION_DOT":0.00022811,"MEAN_MOTION_DDOT":0},{"OBJECT_NAME":"STARLINK-6243","OBJECT_ID":"2023-088AJ","EPOCH":"2026-03-09T20:00:00.999360","MEAN_MOTION":15.07284953,"ECCENTRICITY":0.0001073,"INCLINATION":43.0012,"RA_OF_ASC_NODE":93.9903,"ARG_OF_PERICENTER":318.0656,"MEAN_ANOMALY":191.3744,"EPHEMERIS_TYPE":0,"CLASSIFICATION_TYPE":"U","NORAD_CAT_ID":57080,"ELEMENT_SET_NO":999,"REV_AT_EPOCH":576,"BSTAR":0.0012948,"MEAN_MOTION_DOT":0.00019713,"MEAN_MOTION_DDOT":0},{"OBJECT_NAME":"STARLINK-6184","OBJECT_ID":"2023-088AK","EPOCH":"2026-03-09T20:00:00.999360","MEAN_MOTION":15.09806541,"ECCENTRICITY":0.0001858,"INCLINATION":43.0008,"RA_OF_ASC_NODE":93.6345,"ARG_OF_PERICENTER":251.457,"MEAN_ANOMALY":46.4625,"EPHEMERIS_TYPE":0,"CLASSIFICATION_TYPE":"U","NORAD_CAT_ID":57081,"ELEMENT_SET_NO":999,"REV_AT_EPOCH":581,"BSTAR":0.0012301,"MEAN_MOTION_DOT":0.00020065,"MEAN_MOTION_DDOT":0}]
